[{"OBJECT_NAME":"STARLINK-32047","OBJECT_ID":"2024-183H","EPOCH":"2026-01-22T04:32:05.381952","MEAN_MOTION":15.30195164,"ECCENTRICITY":9.699e-5,"INCLINATION":53.1604,"RA_OF_ASC_NODE":358.3841,"ARG_OF_PERICENTER":94.7802,"MEAN_ANOMALY":265.331,"EPHEMERIS_TYPE":0,"CLASSIFICATION_TYPE":"U","NORAD_CAT_ID":61516,"ELEMENT_SET_NO":999,"REV_AT_EPOCH":7253,"BSTAR":-7.3854487e-5,"MEAN_MOTION_DOT":-2.545e-5,"MEAN_MOTION_DDOT":0},{"OBJECT_NAME":"STARLINK-31756","OBJECT_ID":"2024-183J","EPOCH":"2026-01-22T05:31:22.761120","MEAN_MOTION":15.30157799,"ECCENTRICITY":0.00010021,"INCLINATION":53.159,"RA_OF_ASC_NODE":358.5994,"ARG_OF_PERICENTER":77.1627,"MEAN_ANOMALY":282.9486,"EPHEMERIS_TYPE":0,"CLASSIFICATION_TYPE":"U","NORAD_CAT_ID":61517,"ELEMENT_SET_NO":999,"REV_AT_EPOCH":7253,"BSTAR":0.00011862372,"MEAN_MOTION_DOT":3.151e-5,"MEAN_MOTION_DDOT":0},{"OBJECT_NAME":"STARLINK-32172","OBJECT_ID":"2024-183K","EPOCH":"2026-01-22T06:01:35.325120","MEAN_MOTION":15.3019776,"ECCENTRICITY":0.00017816,"INCLINATION":53.1628,"RA_OF_ASC_NODE":358.0616,"ARG_OF_PERICENTER":78.1442,"MEAN_ANOMALY":281.9759,"EPHEMERIS_TYPE":0,"CLASSIFICATION_TYPE":"U","NORAD_CAT_ID":61518,"ELEMENT_SET_NO":999,"REV_AT_EPOCH":7254,"BSTAR":0.00050143248,"MEAN_MOTION_DOT":0.0001452,"MEAN_MOTION_DDOT":0},{"OBJECT_NAME":"STARLINK-32338","OBJECT_ID":"2024-183L","EPOCH":"2026-01-22T07:24:54.944064","MEAN_MOTION":15.30275095,"ECCENTRICITY":0.0001585,"INCLINATION":53.1621,"RA_OF_ASC_NODE":357.7116,"ARG_OF_PERICENTER":81.004,"MEAN_ANOMALY":279.114,"EPHEMERIS_TYPE":0,"CLASSIFICATION_TYPE":"U","NORAD_CAT_ID":61519,"ELEMENT_SET_NO":999,"REV_AT_EPOCH":7255,"BSTAR":0.00024828994,"MEAN_MOTION_DOT":7.018e-5,"MEAN_MOTION_DDOT":0},{"OBJECT_NAME":"STARLINK-32306","OBJECT_ID":"2024-183M","EPOCH":"2026-01-22T07:20:28.040640","MEAN_MOTION":15.30159942,"ECCENTRICITY":0.00016965,"INCLINATION":53.1636,"RA_OF_ASC_NODE":357.6903,"ARG_OF_PERICENTER":95.4532,"MEAN_ANOMALY":264.6662,"EPHEMERIS_TYPE":0,"CLASSIFICATION_TYPE":"U","NORAD_CAT_ID":61520,"ELEMENT_SET_NO":999,"REV_AT_EPOCH":7255,"BSTAR":-0.00024942469,"MEAN_MOTION_DOT":-7.73e-5,"MEAN_MOTION_DDOT":0},{"OBJECT_NAME":"STARLINK-32297","OBJECT_ID":"2024-183N","EPOCH":"2026-01-22T07:15:52.978464","MEAN_MOTION":15.30211831,"ECCENTRICITY":0.0001649,"INCLINATION":53.1632,"RA_OF_ASC_NODE":357.671,"ARG_OF_PERICENTER":97.03,"MEAN_ANOMALY":263.0889,"EPHEMERIS_TYPE":0,"CLASSIFICATION_TYPE":"U","NORAD_CAT_ID":61521,"ELEMENT_SET_NO":999,"REV_AT_EPOCH":7255,"BSTAR":-2.6996308e-5,"MEAN_MOTION_DOT":-1.159e-5,"MEAN_MOTION_DDOT":0},{"OBJECT_NAME":"STARLINK-32260","OBJECT_ID":"2024-183P","EPOCH":"2026-01-22T07:11:19.774752","MEAN_MOTION":15.30184971,"ECCENTRICITY":0.00011285,"INCLINATION":53.1617,"RA_OF_ASC_NODE":357.6489,"ARG_OF_PERICENTER":88.5112,"MEAN_ANOMALY":271.6018,"EPHEMERIS_TYPE":0,"CLASSIFICATION_TYPE":"U","NORAD_CAT_ID":61522,"ELEMENT_SET_NO":999,"REV_AT_EPOCH":7255,"BSTAR":-5.2206627e-5,"MEAN_MOTION_DOT":-1.904e-5,"MEAN_MOTION_DDOT":0},{"OBJECT_NAME":"STARLINK-32305","OBJECT_ID":"2024-183Q","EPOCH":"2026-01-22T04:50:19.710528","MEAN_MOTION":15.30195003,"ECCENTRICITY":0.00013584,"INCLINATION":53.1626,"RA_OF_ASC_NODE":358.4643,"ARG_OF_PERICENTER":95.1021,"MEAN_ANOMALY":265.0135,"EPHEMERIS_TYPE":0,"CLASSIFICATION_TYPE":"U","NORAD_CAT_ID":61523,"ELEMENT_SET_NO":999,"REV_AT_EPOCH":7253,"BSTAR":-6.7526672e-5,"MEAN_MOTION_DOT":-2.358e-5,"MEAN_MOTION_DDOT":0},{"OBJECT_NAME":"STARLINK-32296","OBJECT_ID":"2024-183R","EPOCH":"2026-01-22T07:06:45.682848","MEAN_MOTION":15.3019315,"ECCENTRICITY":0.00014433,"INCLINATION":53.1599,"RA_OF_ASC_NODE":357.6309,"ARG_OF_PERICENTER":71.8404,"MEAN_ANOMALY":288.2753,"EPHEMERIS_TYPE":0,"CLASSIFICATION_TYPE":"U","NORAD_CAT_ID":61524,"ELEMENT_SET_NO":999,"REV_AT_EPOCH":7255,"BSTAR":8.0543e-5,"MEAN_MOTION_DOT":2.026e-5,"MEAN_MOTION_DDOT":0},{"OBJECT_NAME":"STARLINK-32298","OBJECT_ID":"2024-183S","EPOCH":"2026-01-22T07:02:12.653664","MEAN_MOTION":15.30212941,"ECCENTRICITY":8.488e-5,"INCLINATION":53.162,"RA_OF_ASC_NODE":357.6092,"ARG_OF_PERICENTER":98.1117,"MEAN_ANOMALY":261.998,"EPHEMERIS_TYPE":0,"CLASSIFICATION_TYPE":"U","NORAD_CAT_ID":61525,"ELEMENT_SET_NO":999,"REV_AT_EPOCH":7255,"BSTAR":-0.00016249126,"MEAN_MOTION_DOT":-5.17e-5,"MEAN_MOTION_DDOT":0},{"OBJECT_NAME":"STARLINK-32293","OBJECT_ID":"2024-183T","EPOCH":"2026-01-22T05:23:46.292640","MEAN_MOTION":15.30180794,"ECCENTRICITY":0.00012541,"INCLINATION":53.1599,"RA_OF_ASC_NODE":358.6019,"ARG_OF_PERICENTER":61.5421,"MEAN_ANOMALY":298.5706,"EPHEMERIS_TYPE":0,"CLASSIFICATION_TYPE":"U","NORAD_CAT_ID":61526,"ELEMENT_SET_NO":999,"REV_AT_EPOCH":7253,"BSTAR":0.00043842101,"MEAN_MOTION_DOT":0.0001264,"MEAN_MOTION_DDOT":0},{"OBJECT_NAME":"STARLINK-32313","OBJECT_ID":"2024-183U","EPOCH":"2026-01-22T05:14:38.953824","MEAN_MOTION":15.30181319,"ECCENTRICITY":0.00011228,"INCLINATION":53.1582,"RA_OF_ASC_NODE":358.5591,"ARG_OF_PERICENTER":68.8405,"MEAN_ANOMALY":291.2716,"EPHEMERIS_TYPE":0,"CLASSIFICATION_TYPE":"U","NORAD_CAT_ID":61527,"ELEMENT_SET_NO":999,"REV_AT_EPOCH":7253,"BSTAR":0.00018315253,"MEAN_MOTION_DOT":5.066e-5,"MEAN_MOTION_DDOT":0},{"OBJECT_NAME":"STARLINK-32319","OBJECT_ID":"2024-183V","EPOCH":"2026-01-22T05:22:14.121120","MEAN_MOTION":15.30187883,"ECCENTRICITY":0.0001841,"INCLINATION":53.1617,"RA_OF_ASC_NODE":358.5992,"ARG_OF_PERICENTER":79.8373,"MEAN_ANOMALY":280.2835,"EPHEMERIS_TYPE":0,"CLASSIFICATION_TYPE":"U","NORAD_CAT_ID":61528,"ELEMENT_SET_NO":999,"REV_AT_EPOCH":7253,"BSTAR":5.1271253e-5,"MEAN_MOTION_DOT":1.159e-5,"MEAN_MOTION_DDOT":0},{"OBJECT_NAME":"STARLINK-32351","OBJECT_ID":"2024-183W","EPOCH":"2026-01-22T04:31:11.178048","MEAN_MOTION":15.30193286,"ECCENTRICITY":0.00012623,"INCLINATION":53.1618,"RA_OF_ASC_NODE":355.564,"ARG_OF_PERICENTER":53.4553,"MEAN_ANOMALY":306.6564,"EPHEMERIS_TYPE":0,"CLASSIFICATION_TYPE":"U","NORAD_CAT_ID":61529,"ELEMENT_SET_NO":999,"REV_AT_EPOCH":7257,"BSTAR":0.0008227018,"MEAN_MOTION_DOT":0.00024081,"MEAN_MOTION_DDOT":0},{"OBJECT_NAME":"STARLINK-32261","OBJECT_ID":"2024-183X","EPOCH":"2026-01-22T04:59:27.739680","MEAN_MOTION":15.30193055,"ECCENTRICITY":0.00010246,"INCLINATION":53.1612,"RA_OF_ASC_NODE":358.5132,"ARG_OF_PERICENTER":97.1078,"MEAN_ANOMALY":263.0039,"EPHEMERIS_TYPE":0,"CLASSIFICATION_TYPE":"U","NORAD_CAT_ID":61530,"ELEMENT_SET_NO":999,"REV_AT_EPOCH":7253,"BSTAR":0.00094373095,"MEAN_MOTION_DOT":0.0002769,"MEAN_MOTION_DDOT":0},{"OBJECT_NAME":"STARLINK-32358","OBJECT_ID":"2024-183Y","EPOCH":"2026-01-22T04:35:07.698912","MEAN_MOTION":15.30194938,"ECCENTRICITY":1.911e-5,"INCLINATION":53.1628,"RA_OF_ASC_NODE":358.4095,"ARG_OF_PERICENTER":299.3495,"MEAN_ANOMALY":60.7486,"EPHEMERIS_TYPE":0,"CLASSIFICATION_TYPE":"U","NORAD_CAT_ID":61531,"ELEMENT_SET_NO":999,"REV_AT_EPOCH":7253,"BSTAR":-5.7909283e-5,"MEAN_MOTION_DOT":-2.073e-5,"MEAN_MOTION_DDOT":0},{"OBJECT_NAME":"STARLINK-11354 [DTC]","OBJECT_ID":"2024-184A","EPOCH":"2026-01-21T11:52:26.683392","MEAN_MOTION":15.69706117,"ECCENTRICITY":6.542e-5,"INCLINATION":53.1589,"RA_OF_ASC_NODE":109.0068,"ARG_OF_PERICENTER":115.5128,"MEAN_ANOMALY":244.5958,"EPHEMERIS_TYPE":0,"CLASSIFICATION_TYPE":"U","NORAD_CAT_ID":61532,"ELEMENT_SET_NO":999,"REV_AT_EPOCH":7300,"BSTAR":-3.996204e-6,"MEAN_MOTION_DOT":-1.072e-5,"MEAN_MOTION_DDOT":0},{"OBJECT_NAME":"STARLINK-11323 [DTC]","OBJECT_ID":"2024-184B","EPOCH":"2026-01-22T05:58:32.596032","MEAN_MOTION":15.69691131,"ECCENTRICITY":0.00015452,"INCLINATION":53.1595,"RA_OF_ASC_NODE":105.1775,"ARG_OF_PERICENTER":99.7981,"MEAN_ANOMALY":260.3211,"EPHEMERIS_TYPE":0,"CLASSIFICATION_TYPE":"U","NORAD_CAT_ID":61533,"ELEMENT_SET_NO":999,"REV_AT_EPOCH":7312,"BSTAR":-2.475966e-6,"MEAN_MOTION_DOT":-8.89e-6,"MEAN_MOTION_DDOT":0},{"OBJECT_NAME":"STARLINK-11338 [DTC]","OBJECT_ID":"2024-184C","EPOCH":"2026-01-22T06:05:37.316832","MEAN_MOTION":15.6968075,"ECCENTRICITY":8.345e-5,"INCLINATION":53.1593,"RA_OF_ASC_NODE":105.2075,"ARG_OF_PERICENTER":75.5561,"MEAN_ANOMALY":284.555,"EPHEMERIS_TYPE":0,"CLASSIFICATION_TYPE":"U","NORAD_CAT_ID":61534,"ELEMENT_SET_NO":999,"REV_AT_EPOCH":7312,"BSTAR":-1.0444064e-5,"MEAN_MOTION_DOT":-1.851e-5,"MEAN_MOTION_DDOT":0},{"OBJECT_NAME":"STARLINK-11362 [DTC]","OBJECT_ID":"2024-184D","EPOCH":"2026-01-21T12:55:52.412448","MEAN_MOTION":15.69712961,"ECCENTRICITY":0.00011174,"INCLINATION":53.1587,"RA_OF_ASC_NODE":108.5626,"ARG_OF_PERICENTER":51.7247,"MEAN_ANOMALY":308.3871,"EPHEMERIS_TYPE":0,"CLASSIFICATION_TYPE":"U","NORAD_CAT_ID":61535,"ELEMENT_SET_NO":999,"REV_AT_EPOCH":7301,"BSTAR":-1.7145091e-5,"MEAN_MOTION_DOT":-2.665e-5,"MEAN_MOTION_DDOT":0},{"OBJECT_NAME":"STARLINK-11295 [DTC]","OBJECT_ID":"2024-184E","EPOCH":"2026-01-22T05:51:26.842752","MEAN_MOTION":15.69675467,"ECCENTRICITY":0.00014213,"INCLINATION":53.1575,"RA_OF_ASC_NODE":105.1438,"ARG_OF_PERICENTER":102.156,"MEAN_ANOMALY":257.9617,"EPHEMERIS_TYPE":0,"CLASSIFICATION_TYPE":"U","NORAD_CAT_ID":61536,"ELEMENT_SET_NO":999,"REV_AT_EPOCH":7312,"BSTAR":-0.0001870522,"MEAN_MOTION_DOT":-0.00023155,"MEAN_MOTION_DDOT":0},{"OBJECT_NAME":"STARLINK-11331 [DTC]","OBJECT_ID":"2024-184F","EPOCH":"2026-01-22T05:37:20.134848","MEAN_MOTION":15.69688654,"ECCENTRICITY":0.00011338,"INCLINATION":53.1594,"RA_OF_ASC_NODE":105.0784,"ARG_OF_PERICENTER":84.0786,"MEAN_ANOMALY":276.0361,"EPHEMERIS_TYPE":0,"CLASSIFICATION_TYPE":"U","NORAD_CAT_ID":61537,"ELEMENT_SET_NO":999,"REV_AT_EPOCH":7312,"BSTAR":1.737343e-5,"MEAN_MOTION_DOT":1.515e-5,"MEAN_MOTION_DDOT":0},{"OBJECT_NAME":"STARLINK-11325 [DTC]","OBJECT_ID":"2024-184G","EPOCH":"2026-01-22T05:30:15.678432","MEAN_MOTION":15.69709908,"ECCENTRICITY":0.0001423,"INCLINATION":53.1584,"RA_OF_ASC_NODE":105.0448,"ARG_OF_PERICENTER":98.6269,"MEAN_ANOMALY":261.491,"EPHEMERIS_TYPE":0,"CLASSIFICATION_TYPE":"U","NORAD_CAT_ID":61538,"ELEMENT_SET_NO":999,"REV_AT_EPOCH":7312,"BSTAR":-3.392649e-6,"MEAN_MOTION_DOT":-1.0e-5,"MEAN_MOTION_DDOT":0}]
